{
    "links": {
        "self": "http://www.neowsapp.com/rest/v1/neo/3644731?api_key=iIulBulltgU6a56xZRHN4H3l9WmuAYTsLGpBGhQ2"
    },
    "id": "3644731",
    "neo_reference_id": "3644731",
    "name": "(2013 MP11)",
    "designation": "2013 MP11",
    "nasa_jpl_url": "http://ssd.jpl.nasa.gov/sbdb.cgi?sstr=3644731",
    "absolute_magnitude_h": 21.8,
    "estimated_diameter": {
        "kilometers": {
            "estimated_diameter_min": 0.1160259082,
            "estimated_diameter_max": 0.2594418179
        },
        "meters": {
            "estimated_diameter_min": 116.0259082094,
            "estimated_diameter_max": 259.4418179074
        },
        "miles": {
            "estimated_diameter_min": 0.0720951346,
            "estimated_diameter_max": 0.1612096218
        },
        "feet": {
            "estimated_diameter_min": 380.6624406898,
            "estimated_diameter_max": 851.1870938635
        }
    },
    "is_potentially_hazardous_asteroid": false,
    "close_approach_data": [
        {
            "close_approach_date": "2013-07-05",
            "close_approach_date_full": "2013-Jul-05 16:17",
            "epoch_date_close_approach": 1373041020000,
            "relative_velocity": {
                "kilometers_per_second": "5.345867302",
                "kilometers_per_hour": "19245.1222873656",
                "miles_per_hour": "11958.1705679467"
            },
            "miss_distance": {
                "astronomical": "0.2735850045",
                "lunar": "106.4245667505",
                "kilometers": "40927733.937140415",
                "miles": "25431314.602811127"
            },
            "orbiting_body": "Earth"
        },
        {
            "close_approach_date": "2049-07-04",
            "close_approach_date_full": "2049-Jul-04 11:25",
            "epoch_date_close_approach": 2509010700000,
            "relative_velocity": {
                "kilometers_per_second": "5.3469401789",
                "kilometers_per_hour": "19248.984644149",
                "miles_per_hour": "11960.5704862492"
            },
            "miss_distance": {
                "astronomical": "0.2542039961",
                "lunar": "98.8853544829",
                "kilometers": "38028376.362048307",
                "miles": "23629737.3458963566"
            },
            "orbiting_body": "Earth"
        }
    ],
    "orbital_data": {
        "orbit_id": "18",
        "orbit_determination_date": "2017-04-06 08:45:30",
        "first_observation_date": "2013-06-30",
        "last_observation_date": "2013-09-07",
        "data_arc_in_days": 69,
        "observations_used": 54,
        "orbit_uncertainty": "6",
        "minimum_orbit_intersection": ".243256",
        "jupiter_tisserand_invariant": "3.521",
        "epoch_osculation": "2459000.5",
        "eccentricity": ".4308614742234133",
        "semi_major_axis": "2.204408020074152",
        "inclination": "9.059722802315601",
        "ascending_node_longitude": "293.6296964735626",
        "orbital_period": "1195.463719505137",
        "perihelion_distance": "1.254613530755087",
        "perihelion_argument": "341.3234711173081",
        "aphelion_distance": "3.154202509393216",
        "perihelion_time": "2458853.328113540023",
        "mean_anomaly": "44.31910250486188",
        "mean_motion": ".3011383734414143",
        "equinox": "J2000",
        "orbit_class": {
            "orbit_class_type": "AMO",
            "orbit_class_description": "Near-Earth asteroid orbits similar to that of 1221 Amor",
            "orbit_class_range": "1.017 AU < q (perihelion) < 1.3 AU"
        }
    },
    "is_sentry_object": false
}